ONEWEB-0347             
1 49280U 21090B   24040.56872320 -.00000184  00000+0 -48389-3 0  9997
2 49280  87.9141  85.3490 0002228  96.4881 263.6506 13.20774517117705
ONEWEB-0353             
1 49282U 21090D   24040.60209046  .00000194  00000+0  48897-3 0  9996
2 49282  87.8940 100.6084 0002231  99.7217 260.4165 13.14503463114780
ONEWEB-0356             
1 49283U 21090E   24040.59872243  .00000054  00000+0  10043-3 0  9997
2 49283  87.9146  85.3362 0002163 124.5540 235.5798 13.20771704116495
ONEWEB-0358             
1 49284U 21090F   24040.55294650  .00000055  00000+0  10309-3 0  9990
2 49284  87.9146  85.3308 0001657 105.1158 255.0158 13.20769417117219
ONEWEB-0360             
1 49286U 21090H   24040.54032264  .00000102  00000+0  21872-3 0  9992
2 49286  87.9147  85.3581 0001819  94.4867 265.6474 13.20769630116508
